SHIJIAN-16 (SJ-16)      
1 39358U 13057A   25334.66631726  .00002055  00000+0  20534-3 0  9996
2 39358  74.9740  12.4984 0017251 348.3788  11.6999 14.91937077656736
SL-4 R/B                
1 39679U 14021B   25334.64800105  .00014680  00000+0  35293-3 0  9996
2 39679  51.6066  99.3392 0102875 102.7316 258.5189 15.36202665641036
ALOS-2                  
1 39766U 14029A   25334.56907517  .00002113  00000+0  28956-3 0  9993
2 39766  97.9231  69.5883 0001361  99.5791 260.5574 14.79498532622218
YAOGAN-29               
1 41038U 15069A   25334.60614020  .00000514  00000+0  70149-4 0  9997
2 41038  98.0231 357.7383 0000973  14.1447 345.9793 14.82860695541196
ASTRO-H (HITOMI)        
1 41337U 16012A   25334.52154422  .00003475  00000+0  20729-3 0  9991
2 41337  30.9999 276.1334 0009515  54.2456 305.9066 15.09230147537232
HXMT (HUIYAN)           
1 42758U 17034A   25334.66899646  .00005274  00000+0  27728-3 0  9998
2 42758  43.0134 206.6057 0033305 326.7666  33.1090 15.16089832467500
CZ-2C R/B               
1 43521U 18054D   25334.16482381  .00108571  00000+0  81451-3 0  9996
2 43521  35.1342 265.9782 0018773  12.2682 347.8505 15.71049687413076
SAOCOM 1A               
1 43641U 18076A   25334.65503097  .00000552  00000+0  75911-4 0  9990
2 43641  97.8848 159.2530 0001572  87.8719 272.2674 14.82155822386694
H-2A R/B                
1 43682U 18084L   25334.58381377  .00019011  00000+0  52508-3 0  9997
2 43682  98.8785 166.1493 0028334   8.0798 352.0892 15.36728520390530
SAOCOM 1B               
1 46265U 20059A   25334.61874975  .00000540  00000+0  74409-4 0  9999
2 46265  97.8844 158.3185 0001356  90.7471 269.3897 14.82164425284071
CSS (TIANHE)            
1 48274U 21035A   25334.60566182  .00016368  00000+0  21219-3 0  9998
2 48274  41.4666  90.3296 0010499 300.6819  59.2984 15.58433763262139
COSMOS 2550             
1 48865U 21056A   25333.81495336 -.00000143  00000+0  14678-5 0  9999
2 48865  67.1430 343.0291 0008393 269.4513  90.5680 15.33825458248140
