CCSDS_OMM_VERS = 2.0
CREATION_DATE  = 
ORIGINATOR     = 

OBJECT_NAME    = SHIJIAN-16 (SJ-16)
OBJECT_ID      = 2013-057A
CENTER_NAME    = EARTH
REF_FRAME      = TEME
TIME_SYSTEM    = UTC
MEAN_ELEMENT_THEORY = SGP/SGP4

EPOCH          = 2025-11-30T15:59:29.811264
MEAN_MOTION    = 14.91937077
ECCENTRICITY   = .0017251
INCLINATION    = 74.9740
RA_OF_ASC_NODE = 12.4984
ARG_OF_PERICENTER = 348.3788
MEAN_ANOMALY   = 11.6999

EPHEMERIS_TYPE = 0
CLASSIFICATION_TYPE = U
NORAD_CAT_ID   = 39358
ELEMENT_SET_NO = 999
REV_AT_EPOCH   = 65673
BSTAR          = .20534219E-3
MEAN_MOTION_DOT = .2055E-4
MEAN_MOTION_DDOT = 0

CCSDS_OMM_VERS = 2.0
CREATION_DATE  = 
ORIGINATOR     = 

OBJECT_NAME    = SL-4 R/B
OBJECT_ID      = 2014-021B
CENTER_NAME    = EARTH
REF_FRAME      = TEME
TIME_SYSTEM    = UTC
MEAN_ELEMENT_THEORY = SGP/SGP4

EPOCH          = 2025-11-30T15:33:07.290720
MEAN_MOTION    = 15.36202665
ECCENTRICITY   = .01028756
INCLINATION    = 51.6066
RA_OF_ASC_NODE = 99.3392
ARG_OF_PERICENTER = 102.7316
MEAN_ANOMALY   = 258.5189

EPHEMERIS_TYPE = 0
CLASSIFICATION_TYPE = U
NORAD_CAT_ID   = 39679
ELEMENT_SET_NO = 999
REV_AT_EPOCH   = 64103
BSTAR          = .35292612E-3
MEAN_MOTION_DOT = .1468E-3
MEAN_MOTION_DDOT = 0

CCSDS_OMM_VERS = 2.0
CREATION_DATE  = 
ORIGINATOR     = 

OBJECT_NAME    = ALOS-2
OBJECT_ID      = 2014-029A
CENTER_NAME    = EARTH
REF_FRAME      = TEME
TIME_SYSTEM    = UTC
MEAN_ELEMENT_THEORY = SGP/SGP4

EPOCH          = 2025-11-30T13:39:28.094688
MEAN_MOTION    = 14.79498532
ECCENTRICITY   = .0001361
INCLINATION    = 97.9231
RA_OF_ASC_NODE = 69.5883
ARG_OF_PERICENTER = 99.5791
MEAN_ANOMALY   = 260.5574

EPHEMERIS_TYPE = 0
CLASSIFICATION_TYPE = U
NORAD_CAT_ID   = 39766
ELEMENT_SET_NO = 999
REV_AT_EPOCH   = 62221
BSTAR          = .28956305E-3
MEAN_MOTION_DOT = .2113E-4
MEAN_MOTION_DDOT = 0

CCSDS_OMM_VERS = 2.0
CREATION_DATE  = 
ORIGINATOR     = 

OBJECT_NAME    = YAOGAN-29
OBJECT_ID      = 2015-069A
CENTER_NAME    = EARTH
REF_FRAME      = TEME
TIME_SYSTEM    = UTC
MEAN_ELEMENT_THEORY = SGP/SGP4

EPOCH          = 2025-11-30T14:32:50.513280
MEAN_MOTION    = 14.82860695
ECCENTRICITY   = .00009731
INCLINATION    = 98.0231
RA_OF_ASC_NODE = 357.7383
ARG_OF_PERICENTER = 14.1447
MEAN_ANOMALY   = 345.9793

EPHEMERIS_TYPE = 0
CLASSIFICATION_TYPE = U
NORAD_CAT_ID   = 41038
ELEMENT_SET_NO = 999
REV_AT_EPOCH   = 54119
BSTAR          = .70149063E-4
MEAN_MOTION_DOT = .514E-5
MEAN_MOTION_DDOT = 0

CCSDS_OMM_VERS = 2.0
CREATION_DATE  = 
ORIGINATOR     = 

OBJECT_NAME    = ASTRO-H (HITOMI)
OBJECT_ID      = 2016-012A
CENTER_NAME    = EARTH
REF_FRAME      = TEME
TIME_SYSTEM    = UTC
MEAN_ELEMENT_THEORY = SGP/SGP4

EPOCH          = 2025-11-30T12:31:01.420608
MEAN_MOTION    = 15.09230147
ECCENTRICITY   = .00095154
INCLINATION    = 30.9999
RA_OF_ASC_NODE = 276.1334
ARG_OF_PERICENTER = 54.2456
MEAN_ANOMALY   = 305.9066

EPHEMERIS_TYPE = 0
CLASSIFICATION_TYPE = U
NORAD_CAT_ID   = 41337
ELEMENT_SET_NO = 999
REV_AT_EPOCH   = 53723
BSTAR          = .20729495E-3
MEAN_MOTION_DOT = .3475E-4
MEAN_MOTION_DDOT = 0

CCSDS_OMM_VERS = 2.0
CREATION_DATE  = 
ORIGINATOR     = 

OBJECT_NAME    = HXMT (HUIYAN)
OBJECT_ID      = 2017-034A
CENTER_NAME    = EARTH
REF_FRAME      = TEME
TIME_SYSTEM    = UTC
MEAN_ELEMENT_THEORY = SGP/SGP4

EPOCH          = 2025-11-30T16:03:21.294144
MEAN_MOTION    = 15.16089832
ECCENTRICITY   = .00333052
INCLINATION    = 43.0134
RA_OF_ASC_NODE = 206.6057
ARG_OF_PERICENTER = 326.7666
MEAN_ANOMALY   = 33.1090

EPHEMERIS_TYPE = 0
CLASSIFICATION_TYPE = U
NORAD_CAT_ID   = 42758
ELEMENT_SET_NO = 999
REV_AT_EPOCH   = 46750
BSTAR          = .27727837E-3
MEAN_MOTION_DOT = .5274E-4
MEAN_MOTION_DDOT = 0

CCSDS_OMM_VERS = 2.0
CREATION_DATE  = 
ORIGINATOR     = 

OBJECT_NAME    = CZ-2C R/B
OBJECT_ID      = 2018-054D
CENTER_NAME    = EARTH
REF_FRAME      = TEME
TIME_SYSTEM    = UTC
MEAN_ELEMENT_THEORY = SGP/SGP4

EPOCH          = 2025-11-30T03:57:20.777184
MEAN_MOTION    = 15.71049687
ECCENTRICITY   = .00187733
INCLINATION    = 35.1342
RA_OF_ASC_NODE = 265.9782
ARG_OF_PERICENTER = 12.2682
MEAN_ANOMALY   = 347.8505

EPHEMERIS_TYPE = 0
CLASSIFICATION_TYPE = U
NORAD_CAT_ID   = 43521
ELEMENT_SET_NO = 999
REV_AT_EPOCH   = 41307
BSTAR          = .81450853E-3
MEAN_MOTION_DOT = .108571E-2
MEAN_MOTION_DDOT = 0

CCSDS_OMM_VERS = 2.0
CREATION_DATE  = 
ORIGINATOR     = 

OBJECT_NAME    = SAOCOM 1A
OBJECT_ID      = 2018-076A
CENTER_NAME    = EARTH
REF_FRAME      = TEME
TIME_SYSTEM    = UTC
MEAN_ELEMENT_THEORY = SGP/SGP4

EPOCH          = 2025-11-30T15:43:14.675808
MEAN_MOTION    = 14.82155822
ECCENTRICITY   = .0001572
INCLINATION    = 97.8848
RA_OF_ASC_NODE = 159.2530
ARG_OF_PERICENTER = 87.8719
MEAN_ANOMALY   = 272.2674

EPHEMERIS_TYPE = 0
CLASSIFICATION_TYPE = U
NORAD_CAT_ID   = 43641
ELEMENT_SET_NO = 999
REV_AT_EPOCH   = 38669
BSTAR          = .75911024E-4
MEAN_MOTION_DOT = .552E-5
MEAN_MOTION_DDOT = 0

CCSDS_OMM_VERS = 2.0
CREATION_DATE  = 
ORIGINATOR     = 

OBJECT_NAME    = H-2A R/B
OBJECT_ID      = 2018-084L
CENTER_NAME    = EARTH
REF_FRAME      = TEME
TIME_SYSTEM    = UTC
MEAN_ELEMENT_THEORY = SGP/SGP4

EPOCH          = 2025-11-30T14:00:41.509728
MEAN_MOTION    = 15.36728520
ECCENTRICITY   = .0028334
INCLINATION    = 98.8785
RA_OF_ASC_NODE = 166.1493
ARG_OF_PERICENTER = 8.0798
MEAN_ANOMALY   = 352.0892

EPHEMERIS_TYPE = 0
CLASSIFICATION_TYPE = U
NORAD_CAT_ID   = 43682
ELEMENT_SET_NO = 999
REV_AT_EPOCH   = 39053
BSTAR          = .52507891E-3
MEAN_MOTION_DOT = .19011E-3
MEAN_MOTION_DDOT = 0

CCSDS_OMM_VERS = 2.0
CREATION_DATE  = 
ORIGINATOR     = 

OBJECT_NAME    = SAOCOM 1B
OBJECT_ID      = 2020-059A
CENTER_NAME    = EARTH
REF_FRAME      = TEME
TIME_SYSTEM    = UTC
MEAN_ELEMENT_THEORY = SGP/SGP4

EPOCH          = 2025-11-30T14:50:59.978400
MEAN_MOTION    = 14.82164425
ECCENTRICITY   = .00013565
INCLINATION    = 97.8844
RA_OF_ASC_NODE = 158.3185
ARG_OF_PERICENTER = 90.7471
MEAN_ANOMALY   = 269.3897

EPHEMERIS_TYPE = 0
CLASSIFICATION_TYPE = U
NORAD_CAT_ID   = 46265
ELEMENT_SET_NO = 999
REV_AT_EPOCH   = 28407
BSTAR          = .74409343E-4
MEAN_MOTION_DOT = .54E-5
MEAN_MOTION_DDOT = 0

CCSDS_OMM_VERS = 2.0
CREATION_DATE  = 
ORIGINATOR     = 

OBJECT_NAME    = CSS (TIANHE)
OBJECT_ID      = 2021-035A
CENTER_NAME    = EARTH
REF_FRAME      = TEME
TIME_SYSTEM    = UTC
MEAN_ELEMENT_THEORY = SGP/SGP4

EPOCH          = 2025-11-30T14:32:09.181248
MEAN_MOTION    = 15.58433763
ECCENTRICITY   = .00104995
INCLINATION    = 41.4666
RA_OF_ASC_NODE = 90.3296
ARG_OF_PERICENTER = 300.6819
MEAN_ANOMALY   = 59.2984

EPHEMERIS_TYPE = 0
CLASSIFICATION_TYPE = U
NORAD_CAT_ID   = 48274
ELEMENT_SET_NO = 999
REV_AT_EPOCH   = 26213
BSTAR          = .21218928E-3
MEAN_MOTION_DOT = .16368E-3
MEAN_MOTION_DDOT = 0

CCSDS_OMM_VERS = 2.0
CREATION_DATE  = 
ORIGINATOR     = 

OBJECT_NAME    = COSMOS 2550
OBJECT_ID      = 2021-056A
CENTER_NAME    = EARTH
REF_FRAME      = TEME
TIME_SYSTEM    = UTC
MEAN_ELEMENT_THEORY = SGP/SGP4

EPOCH          = 2025-11-29T19:33:31.970304
MEAN_MOTION    = 15.33825458
ECCENTRICITY   = .00083936
INCLINATION    = 67.1430
RA_OF_ASC_NODE = 343.0291
ARG_OF_PERICENTER = 269.4513
MEAN_ANOMALY   = 90.5680

EPHEMERIS_TYPE = 0
CLASSIFICATION_TYPE = U
NORAD_CAT_ID   = 48865
ELEMENT_SET_NO = 999
REV_AT_EPOCH   = 24814
BSTAR          = .1467811E-5
MEAN_MOTION_DOT = -.143E-5
MEAN_MOTION_DDOT = 0

